GLOBALSTAR M063         
1 26081U 00008A   25318.49456831 -.00000048  00000+0  51412-3 0  9992
2 26081  51.9960  75.7101 0004120 231.8268 207.2354 11.86177476175416
GLOBALSTAR M062         
1 26082U 00008B   25318.61488720 -.00000035  00000+0  45056-3 0  9992
2 26082  51.9875  13.4154 0007348  75.6901  66.2173 12.43477751515336
GLOBALSTAR M064         
1 26084U 00008D   25318.59730809 -.00000047  00000+0  51794-3 0  9998
2 26084  51.9995 172.4991 0001851  27.2604 332.8325 11.88538633184981
GLOBALSTAR M065         
1 31571U 07020A   25317.93659027 -.00000031  00000+0  40713-3 0  9997
2 31571  51.9866 130.4731 0008990 280.4126 244.0010 12.62013732852319
GLOBALSTAR M069         
1 31573U 07020C   25318.48169269 -.00000052  00000+0  37776-3 0  9992
2 31573  52.0000 139.8236 0002865  76.6639 299.1378 12.23463414852529
GLOBALSTAR M072         
1 31574U 07020D   25318.76604661 -.00000052  00000+0  44121-3 0  9996
2 31574  51.9948 311.0926 0000905 267.1937 264.2942 11.91653349849416
GLOBALSTAR M071         
1 31576U 07020F   25318.38057953 -.00000113  00000+0 -21482-3 0  9996
2 31576  52.0032 169.9636 0001939  68.9995 102.4435 12.18261508513242
